{
  "type": "FeatureCollection",
  "features": [
    {
      "type": "Feature",
      "properties": {
        "Name": "Wakkanai Airport"
      },
      "geometry": {
        "type": "Point",
        "coordinates": [
          141.7974528,
          45.3995654
        ]
      },
      "icao_code": "RJCW"
    },
    {
      "type": "Feature",
      "properties": {
        "Name": "Asahikawa Airport"
      },
      "geometry": {
        "type": "Point",
        "coordinates": [
          142.446865,
          43.67147493
        ]
      },
      "icao_code": "RJEC"
    },
    {
      "type": "Feature",
      "properties": {
        "Name": "Kushiro Airport"
      },
      "geometry": {
        "type": "Point",
        "coordinates": [
          144.1962358,
          43.04503509
        ]
      },
      "icao_code": "RJCK"
    },
    {
      "type": "Feature",
      "properties": {
        "Name": "Obihiro Airport"
      },
      "geometry": {
        "type": "Point",
        "coordinates": [
          143.2177867,
          42.73121032
        ]
      },
      "icao_code": "RJCB"
    },
    {
      "type": "Feature",
      "properties": {
        "Name": "Sapporo Okadama Airport"
      },
      "geometry": {
        "type": "Point",
        "coordinates": [
          141.3802179,
          43.11577495
        ]
      },
      "icao_code": "RJCO"
    },
    {
      "type": "Feature",
      "properties": {
        "Name": "New Chitose Airport"
      },
      "geometry": {
        "type": "Point",
        "coordinates": [
          141.6860269,
          42.77899571
        ]
      },
      "icao_code": "RJCC"
    },
    {
      "type": "Feature",
      "properties": {
        "Name": "Hakodate Airport"
      },
      "geometry": {
        "type": "Point",
        "coordinates": [
          140.8161369,
          41.7754762
        ]
      },
      "icao_code": "RJCH"
    },
    {
      "type": "Feature",
      "properties": {
        "Name": "Aomori Airport"
      },
      "geometry": {
        "type": "Point",
        "coordinates": [
          140.6902087,
          40.73545867
        ]
      },
      "icao_code": "RJSA"
    },
    {
      "type": "Feature",
      "properties": {
        "Name": "Akita Airport"
      },
      "geometry": {
        "type": "Point",
        "coordinates": [
          140.2176736,
          39.61432074
        ]
      },
      "icao_code": "RJSK"
    },
    {
      "type": "Feature",
      "properties": {
        "Name": "Hanamaki Airport"
      },
      "geometry": {
        "type": "Point",
        "coordinates": [
          141.1384845,
          39.42148821
        ]
      },
      "icao_code": "RJSI"
    },
    {
      "type": "Feature",
      "properties": {
        "Name": "Sendai Airport"
      },
      "geometry": {
        "type": "Point",
        "coordinates": [
          140.9170924,
          38.13993289
        ]
      },
      "icao_code": "RJSS"
    },
    {
      "type": "Feature",
      "properties": {
        "Name": "Yamagata Airport"
      },
      "geometry": {
        "type": "Point",
        "coordinates": [
          140.3703334,
          38.41209636
        ]
      },
      "icao_code": "RJSC"
    },
    {
      "type": "Feature",
      "properties": {
        "Name": "Fukushima Airport"
      },
      "geometry": {
        "type": "Point",
        "coordinates": [
          140.4282886,
          37.2284081
        ]
      },
      "icao_code": "RJSF"
    },
    {
      "type": "Feature",
      "properties": {
        "Name": "Niigata Airport"
      },
      "geometry": {
        "type": "Point",
        "coordinates": [
          139.1114496,
          37.95505405
        ]
      },
      "icao_code": "RJSN"
    },
    {
      "type": "Feature",
      "properties": {
        "Name": "Matsumoto Airport"
      },
      "geometry": {
        "type": "Point",
        "coordinates": [
          137.9264258,
          36.16462046
        ]
      },
      "icao_code": "RJAF"
    },
    {
      "type": "Feature",
      "properties": {
        "Name": "Narita International Airport"
      },
      "geometry": {
        "type": "Point",
        "coordinates": [
          140.3848188,
          35.77073692
        ]
      },
      "icao_code": "RJAA"
    },
    {
      "type": "Feature",
      "properties": {
        "Name": "Tokyo International Airport"
      },
      "geometry": {
        "type": "Point",
        "coordinates": [
          139.7791314,
          35.548171
        ]
      },
      "icao_code": "RJTT"
    },
    {
      "type": "Feature",
      "properties": {
        "Name": "Shizuoka Airport"
      },
      "geometry": {
        "type": "Point",
        "coordinates": [
          138.1853326,
          34.79653615
        ]
      },
      "icao_code": "RJNS"
    },
    {
      "type": "Feature",
      "properties": {
        "Name": "Chubu Centrair International Airport"
      },
      "geometry": {
        "type": "Point",
        "coordinates": [
          136.8101604,
          34.85720324
        ]
      },
      "icao_code": "RJGG"
    },
    {
      "type": "Feature",
      "properties": {
        "Name": "Osaka Itami Airport"
      },
      "geometry": {
        "type": "Point",
        "coordinates": [
          135.4381271,
          34.78606811
        ]
      },
      "icao_code": "RJOO"
    },
    {
      "type": "Feature",
      "properties": {
        "Name": "Kansai International Airport"
      },
      "geometry": {
        "type": "Point",
        "coordinates": [
          135.2367959,
          34.43197865
        ]
      },
      "icao_code": "RJBB"
    },
    {
      "type": "Feature",
      "properties": {
        "Name": "Kobe Airport"
      },
      "geometry": {
        "type": "Point",
        "coordinates": [
          135.2267252,
          34.63507139
        ]
      },
      "icao_code": "RJBE"
    },
    {
      "type": "Feature",
      "properties": {
        "Name": "Takamatsu Airport"
      },
      "geometry": {
        "type": "Point",
        "coordinates": [
          134.0146539,
          34.21484194
        ]
      },
      "icao_code": "RJOT"
    },
    {
      "type": "Feature",
      "properties": {
        "Name": "Kochi Airport"
      },
      "geometry": {
        "type": "Point",
        "coordinates": [
          133.6739953,
          33.5476357
        ]
      },
      "icao_code": "VOCI"
    },
    {
      "type": "Feature",
      "properties": {
        "Name": "Hiroshima Airport"
      },
      "geometry": {
        "type": "Point",
        "coordinates": [
          132.9207516,
          34.43731367
        ]
      },
      "icao_code": "RJOA"
    },
    {
      "type": "Feature",
      "properties": {
        "Name": "Matsuyama Airport"
      },
      "geometry": {
        "type": "Point",
        "coordinates": [
          132.7003022,
          33.8277126
        ]
      },
      "icao_code": "RJOM"
    },
    {
      "type": "Feature",
      "properties": {
        "Name": "Yamaguchi Ube Airport"
      },
      "geometry": {
        "type": "Point",
        "coordinates": [
          131.2786026,
          33.93127097
        ]
      },
      "icao_code": "RJDC"
    },
    {
      "type": "Feature",
      "properties": {
        "Name": "Fukuoka Airport"
      },
      "geometry": {
        "type": "Point",
        "coordinates": [
          130.4500511,
          33.58561376
        ]
      },
      "icao_code": "RJFF"
    },
    {
      "type": "Feature",
      "properties": {
        "Name": "Nagasaki Airport"
      },
      "geometry": {
        "type": "Point",
        "coordinates": [
          129.9170527,
          32.91489785
        ]
      },
      "icao_code": "RJFU"
    },
    {
      "type": "Feature",
      "properties": {
        "Name": "Oita Airport"
      },
      "geometry": {
        "type": "Point",
        "coordinates": [
          131.7362115,
          33.47958263
        ]
      },
      "icao_code": "RJFO"
    },
    {
      "type": "Feature",
      "properties": {
        "Name": "Kumamoto Airport"
      },
      "geometry": {
        "type": "Point",
        "coordinates": [
          130.8588813,
          32.83497974
        ]
      },
      "icao_code": "RJFT"
    },
    {
      "type": "Feature",
      "properties": {
        "Name": "Kagoshima Airport"
      },
      "geometry": {
        "type": "Point",
        "coordinates": [
          130.7202485,
          31.80072839
        ]
      },
      "icao_code": "RJFK"
    },
    {
      "type": "Feature",
      "properties": {
        "Name": "Naha Airport"
      },
      "geometry": {
        "type": "Point",
        "coordinates": [
          127.6467932,
          26.19990739
        ]
      },
      "icao_code": "ROAH"
    }
  ]
}
